NORAD_CAT_ID,OBJECT_NAME,OBJECT_TYPE,EPOCH,MEAN_MOTION,ECCENTRICITY,INCLINATION,RA_OF_ASC_NODE,ARG_OF_PERICENTER,MEAN_ANOMALY,BSTAR,MEAN_MOTION_DOT,MEAN_MOTION_DDOT,TLE_LINE0,TLE_LINE1,TLE_LINE2,SEMIMAJOR_AXIS,PERIOD,APOGEE,PERIGEE,DECAYED
49759.0,STARLINK-3204,PAYLOAD,2024-07-06 18:01:46,15.08837099,0.0001664,53.2178,1.7292,97.0567,263.0614,0.00013345,1.836e-05,0.0,0 STARLINK-3204,1 49759U 21115AM  24188.75123057  .00001836  00000-0  13345-3 0  9994,2 49759  53.2178   1.7292 0001664  97.0567 263.0614 15.08837099144555,6917.889,95.438,540.905,538.603,0.0
49759.0,STARLINK-3204,PAYLOAD,2024-07-07 05:09:28,15.08842809,0.0001189,53.2181,359.6511,89.8072,270.3057,0.00011728,1.579e-05,0.0,0 STARLINK-3204,1 49759U 21115AM  24189.21490846  .00001579  00000-0  11728-3 0  9996,2 49759  53.2181 359.6511 0001189  89.8072 270.3057 15.08842809143512,6917.872,95.437,540.559,538.914,0.0
49759.0,STARLINK-3204,PAYLOAD,2024-07-08 14:32:33,15.08861759,0.0001521,53.2199,353.4064,88.8149,271.3018,-0.00042443,-7.041e-05,0.0,0 STARLINK-3204,1 49759U 21115AM  24190.60593932 -.00007041  00000-0 -42443-3 0  9991,2 49759  53.2199 353.4064 0001521  88.8149 271.3018 15.08861759143726,6917.814,95.436,540.731,538.627,0.0
49759.0,STARLINK-3204,PAYLOAD,2024-07-08 17:43:20,15.0883865,0.0001292,53.2197,352.8111,99.3048,260.809,0.000379,5.749e-05,0.0,0 STARLINK-3204,1 49759U 21115AM  24190.73843521  .00005749  00000-0  37900-3 0  9990,2 49759  53.2197 352.8111 0001292  99.3048 260.8090 15.08838650144852,6917.885,95.438,540.643,538.856,0.0
49759.0,STARLINK-3204,PAYLOAD,2024-07-09 03:15:38,15.088507,0.0001204,53.2187,351.0275,96.3998,263.7132,0.00024233,3.572e-05,0.0,0 STARLINK-3204,1 49759U 21115AM  24191.13586641  .00003572  00000-0  24233-3 0  9999,2 49759  53.2187 351.0275 0001204  96.3998 263.7132 15.08850700144913,6917.848,95.437,540.546,538.88,0.0
49759.0,STARLINK-3204,PAYLOAD,2024-07-09 11:12:35,15.08842124,0.0002022,53.2185,349.5405,85.3375,274.7848,0.00011447,1.534e-05,0.0,0 STARLINK-3204,1 49759U 21115AM  24191.46707301  .00001534  00000-0  11447-3 0  9992,2 49759  53.2185 349.5405 0002022  85.3375 274.7848 15.08842124144966,6917.874,95.437,541.138,538.34,0.0
49759.0,STARLINK-3204,PAYLOAD,2024-07-09 14:23:21,15.08836331,0.0001364,53.2184,348.9473,107.3501,252.764,-1.6741e-05,-5.54e-06,0.0,0 STARLINK-3204,1 49759U 21115AM  24191.59955329 -.00000554  00000-0 -16741-4 0  9997,2 49759  53.2184 348.9473 0001364 107.3501 252.7640 15.08836331143875,6917.892,95.438,540.7,538.813,0.0
49759.0,STARLINK-3204,PAYLOAD,2024-07-09 15:58:44,15.08837046,0.0001372,53.2184,348.65,107.0538,253.0604,-3.6777e-06,-3.46e-06,0.0,0 STARLINK-3204,1 49759U 21115AM  24191.66579315 -.00000346  00000-0 -36777-5 0  9993,2 49759  53.2184 348.6500 0001372 107.0538 253.0604 15.08837046143888,6917.889,95.438,540.704,538.805,0.0
49759.0,STARLINK-3204,PAYLOAD,2024-07-10 09:27:58,15.08843646,0.0001381,53.2196,345.3835,113.5881,246.5256,0.00028251,4.212e-05,0.0,0 STARLINK-3204,1 49759U 21115AM  24192.39443072  .00004212  00000-0  28251-3 0  9994,2 49759  53.2196 345.3835 0001381 113.5881 246.5256 15.08843646143994,6917.869,95.437,540.69,538.779,0.0
49759.0,STARLINK-3204,PAYLOAD,2024-07-10 17:24:54,15.0884121,0.0001079,53.2191,343.8944,99.4271,260.6843,9.3029e-05,1.193e-05,0.0,0 STARLINK-3204,1 49759U 21115AM  24192.72563202  .00001193  00000-0  93029-4 0  9990,2 49759  53.2191 343.8944 0001079  99.4271 260.6843 15.08841210145156,6917.877,95.437,540.488,538.995,0.0
49759.0,STARLINK-3204,PAYLOAD,2024-07-11 14:04:55,15.08836986,0.0001316,53.2166,340.0262,87.9554,272.1589,0.00050605,7.774e-05,0.0,0 STARLINK-3204,1 49759U 21115AM  24193.58675346  .00007774  00000-0  50605-3 0  9991,2 49759  53.2166 340.0262 0001316  87.9554 272.1589 15.08836986144170,6917.89,95.438,540.665,538.844,0.0
49759.0,STARLINK-3204,PAYLOAD,2024-07-11 22:01:51,15.08851642,9.85e-05,53.2162,338.5398,86.972,273.1385,0.0016638,0.00026299,0.0,0 STARLINK-3204,1 49759U 21115AM  24193.91795393  .00026299  00000-0  16638-2 0  9993,2 49759  53.2162 338.5398 0000985  86.9720 273.1385 15.08851642144220,6917.845,95.437,540.391,539.028,0.0
49759.0,STARLINK-3204,PAYLOAD,2024-07-12 04:23:23,15.08858642,0.0001503,53.2162,337.3512,78.3887,281.7274,0.0012766,0.00020098,0.0,0 STARLINK-3204,1 49759U 21115AM  24194.18291299  .00020098  00000-0  12766-2 0  9998,2 49759  53.2162 337.3512 0001503  78.3887 281.7274 15.08858642145377,6917.823,95.436,540.728,538.649,0.0
49759.0,STARLINK-3204,PAYLOAD,2024-07-12 13:55:42,15.08844109,0.0001127,53.2162,335.5665,85.7809,274.3312,0.00047955,7.353e-05,0.0,0 STARLINK-3204,1 49759U 21115AM  24194.58035563  .00007353  00000-0  47955-3 0  9990,2 49759  53.2162 335.5665 0001127  85.7809 274.3312 15.08844109145435,6917.868,95.437,540.512,538.953,0.0
49759.0,STARLINK-3204,PAYLOAD,2024-07-12 21:52:38,15.08853171,0.0001162,53.2162,334.079,86.0738,274.0387,0.00079712,0.00012426,0.0,0 STARLINK-3204,1 49759U 21115AM  24194.91155400  .00012426  00000-0  79712-3 0  9993,2 49759  53.2162 334.0790 0001162  86.0738 274.0387 15.08853171144372,6917.84,95.437,540.509,538.901,0.0
49759.0,STARLINK-3204,PAYLOAD,2024-07-13 12:11:06,15.08841691,0.0001114,53.216,331.4031,90.1604,269.9516,0.0011973,0.00018819,0.0,0 STARLINK-3204,1 49759U 21115AM  24195.50771985  .00018819  00000-0  11973-2 0  9997,2 49759  53.2160 331.4031 0001114  90.1604 269.9516 15.08841691145578,6917.875,95.437,540.511,538.97,0.0
49759.0,STARLINK-3204,PAYLOAD,2024-07-13 13:46:30,15.08843355,0.0001078,53.2161,331.1059,90.0688,270.0427,0.0013988,0.00022046,0.0,0 STARLINK-3204,1 49759U 21115AM  24195.57395983  .00022046  00000-0  13988-2 0  9999,2 49759  53.2161 331.1059 0001078  90.0688 270.0427 15.08843355144477,6917.87,95.437,540.481,538.989,0.0
49759.0,STARLINK-3204,PAYLOAD,2024-07-13 21:43:25,15.08857182,0.0001121,53.216,329.6188,89.9099,270.2021,0.0023424,0.00037206,0.0,0 STARLINK-3204,1 49759U 21115AM  24195.90515905  .00037206  00000-0  23424-2 0  9994,2 49759  53.2160 329.6188 0001121  89.9099 270.2021 15.08857182144524,6917.828,95.436,540.468,538.917,0.0
49759.0,STARLINK-3204,PAYLOAD,2024-07-14 04:04:58,15.08853001,0.0001151,53.216,328.4284,113.4546,246.6568,0.0012629,0.00019875,0.0,0 STARLINK-3204,1 49759U 21115AM  24196.17011770  .00019875  00000-0  12629-2 0  9992,2 49759  53.2160 328.4284 0001151 113.4546 246.6568 15.08853001145677,6917.841,95.437,540.502,538.909,0.0
49759.0,STARLINK-3204,PAYLOAD,2024-07-14 13:37:17,15.08854013,0.0001119,53.2161,326.6446,101.7854,258.3264,0.0009497,0.00014865,0.0,0 STARLINK-3204,1 49759U 21115AM  24196.56755834  .00014865  00000-0  94970-3 0  9995,2 49759  53.2161 326.6446 0001119 101.7854 258.3264 15.08854013145738,6917.838,95.437,540.477,538.928,0.0
49759.0,STARLINK-3204,PAYLOAD,2024-07-14 15:12:40,15.0884989,0.0001132,53.2161,326.3477,103.5432,256.5686,0.0011759,0.00018481,0.0,0 STARLINK-3204,1 49759U 21115AM  24196.63379889  .00018481  00000-0  11759-2 0  9996,2 49759  53.2161 326.3477 0001132 103.5432 256.5686 15.08849890144639,6917.85,95.437,540.498,538.932,0.0
49759.0,STARLINK-3204,PAYLOAD,2024-07-14 19:58:49,15.08862783,0.000109,53.2163,325.455,98.7438,261.3677,0.0010131,0.00015882,0.0,0 STARLINK-3204,1 49759U 21115AM  24196.83251501  .00015882  00000-0  10131-2 0  9993,2 49759  53.2163 325.4550 0001090  98.7438 261.3677 15.08862783144660,6917.811,95.436,540.43,538.922,0.0
49759.0,STARLINK-3204,PAYLOAD,2024-07-15 03:55:44,15.08856949,0.0001044,53.2165,323.9678,104.5081,255.6027,0.0006873,0.00010672,0.0,0 STARLINK-3204,1 49759U 21115AM  24197.16371414  .00010672  00000-0  68730-3 0  9997,2 49759  53.2165 323.9678 0001044 104.5081 255.6027 15.08856949145826,6917.829,95.436,540.416,538.971,0.0
49759.0,STARLINK-3204,PAYLOAD,2024-07-15 11:52:40,15.08848143,0.0001277,53.2163,322.4815,93.0902,267.0237,0.00059171,9.144e-05,0.0,0 STARLINK-3204,1 49759U 21115AM  24197.49491788  .00009144  00000-0  59171-3 0  9991,2 49759  53.2163 322.4815 0001277  93.0902 267.0237 15.08848143145875,6917.855,95.437,540.604,538.837,0.0
49759.0,STARLINK-3204,PAYLOAD,2024-07-15 13:28:04,15.0884294,0.0001293,53.2164,322.1844,89.6442,270.4698,0.0011246,0.00017657,0.0,0 STARLINK-3204,1 49759U 21115AM  24197.56115921  .00017657  00000-0  11246-2 0  9999,2 49759  53.2164 322.1844 0001293  89.6442 270.4698 15.08842940144779,6917.871,95.437,540.631,538.842,0.0
49759.0,STARLINK-3204,PAYLOAD,2024-07-15 19:49:36,15.08853382,0.0001332,53.2164,320.9951,84.268,275.8464,0.0020192,0.00032006,0.0,0 STARLINK-3204,1 49759U 21115AM  24197.82611824  .00032006  00000-0  20192-2 0  9996,2 49759  53.2164 320.9951 0001332  84.2680 275.8464 15.08853382144810,6917.839,95.437,540.626,538.783,0.0
49759.0,STARLINK-3204,PAYLOAD,2024-07-16 13:18:51,15.08848555,0.0001237,53.2167,317.7237,98.8682,261.245,0.0012831,0.00020196,0.0,0 STARLINK-3204,1 49759U 21115AM  24198.55475892  .00020196  00000-0  12831-2 0  9998,2 49759  53.2167 317.7237 0001237  98.8682 261.2450 15.08848555146037,6917.854,95.437,540.575,538.864,0.0
49759.0,STARLINK-3204,PAYLOAD,2024-07-16 19:40:23,15.08865649,0.0001269,53.2168,316.5341,97.7284,262.3852,0.0025822,0.00041076,0.0,0 STARLINK-3204,1 49759U 21115AM  24198.81971746  .00041076  00000-0  25822-2 0  9990,2 49759  53.2168 316.5341 0001269  97.7284 262.3852 15.08865649144963,6917.802,95.436,540.545,538.789,0.0
49759.0,STARLINK-3204,PAYLOAD,2024-07-17 13:09:38,15.08834168,0.0001188,53.2167,313.2631,84.4589,275.6538,0.00071076,0.0001104,0.0,0 STARLINK-3204,1 49759U 21115AM  24199.54836305  .00011040  00000-0  71076-3 0  9993,2 49759  53.2167 313.2631 0001188  84.4589 275.6538 15.08834168146185,6917.898,95.438,540.585,538.941,0.0
49759.0,STARLINK-3204,PAYLOAD,2024-07-17 14:45:01,15.0883779,0.0001257,53.2167,312.9664,73.5372,286.5758,0.0012525,0.000197,0.0,0 STARLINK-3204,1 49759U 21115AM  24199.61460510  .00019700  00000-0  12525-2 0  9996,2 49759  53.2167 312.9664 0001257  73.5372 286.5758 15.08837790145080,6917.887,95.438,540.622,538.883,0.0
